[{"OBJECT_NAME":"STARLINK-4027","OBJECT_ID":"2022-052D","EPOCH":"2026-03-09T20:46:25.021632","MEAN_MOTION":15.08836121,"ECCENTRICITY":0.00012999,"INCLINATION":53.2159,"RA_OF_ASC_NODE":278.3341,"ARG_OF_PERICENTER":91.3033,"MEAN_ANOMALY":268.8108,"EPHEMERIS_TYPE":0,"CLASSIFICATION_TYPE":"U","NORAD_CAT_ID":52601,"ELEMENT_SET_NO":999,"REV_AT_EPOCH":21168,"BSTAR":-7.296261e-6,"MEAN_MOTION_DOT":-4.04e-6,"MEAN_MOTION_DDOT":0},{"OBJECT_NAME":"CZ-4B DEB","OBJECT_ID":"2004-035N","EPOCH":"2026-03-08T07:19:22.074240","MEAN_MOTION":15.17712882,"ECCENTRICITY":0.00700404,"INCLINATION":97.867,"RA_OF_ASC_NODE":11.9774,"ARG_OF_PERICENTER":119.6038,"MEAN_ANOMALY":241.2197,"EPHEMERIS_TYPE":0,"CLASSIFICATION_TYPE":"U","NORAD_CAT_ID":35270,"ELEMENT_SET_NO":999,"REV_AT_EPOCH":13623,"BSTAR":0.0033008842,"MEAN_MOTION_DOT":0.00071474,"MEAN_MOTION_DDOT":0}]
